ONEWEB-0080             
1 45426U 20020C   24129.58948559  .00000157  00000+0  40707-3 0  9999
2 45426  87.8988 174.1644 0002348 105.2918 254.8469 13.11416367201836
ONEWEB-0090             
1 45427U 20020D   24129.83622089 -.00000081  00000+0 -26297-3 0  9991
2 45427  87.8994 174.0971 0002128  95.4731 264.6639 13.11417688201841
ONEWEB-0061             
1 45428U 20020E   24129.86869741  .00000904  00000+0  25148-2 0  9998
2 45428  87.8990 174.0908 0002048  97.2703 262.8658 13.11424476201796
ONEWEB-0081             
1 45429U 20020F   24129.54402969 -.00000438  00000+0 -12706-2 0  9999
2 45429  87.8991 174.1720 0001946 101.6647 258.4699 13.11417613201863
ONEWEB-0069             
1 45430U 20020G   24129.83947572 -.00000984  00000+0 -28133-2 0  9994
2 45430  87.8990 174.1019 0002159  96.6561 263.4812 13.11413979201842
ONEWEB-0031             
1 45431U 20020H   24129.81026509  .00000508  00000+0  13964-2 0  9997
2 45431  87.8994 174.1141 0002106  89.2637 270.8732 13.11417379201815
ONEWEB-0027             
1 45432U 20020J   24129.54145859  .00000074  00000+0  15748-3 0  9999
2 45432  87.9176 159.0358 0002380  85.2246 274.9157 13.17650713205005
ONEWEB-0064             
1 45433U 20020K   24129.57976066  .00000491  00000+0  13500-2 0  9991
2 45433  87.8992 174.1701 0002381  95.3937 264.7462 13.11415141201810
